ONEWEB-0410             
1 51622U 22012A   24011.90365644  .00000067  00000+0  14042-3 0  9994
2 51622  87.9207 182.2788 0000473  46.1836 313.9334 13.17650369 96854
ONEWEB-0411             
1 51623U 22012B   24011.58631501 -.00000531  00000+0 -15583-2 0  9995
2 51623  87.8900 212.5515 0001665  81.4279 278.7037 13.10376357 93047
ONEWEB-0415             
1 51624U 22012C   24011.58306268 -.00000622  00000+0 -18182-2 0  9994
2 51624  87.8902 212.5811 0001694  78.0825 282.0492 13.10375334 93047
ONEWEB-0416             
1 51625U 22012D   24011.59443032 -.00000447  00000+0 -13170-2 0  9994
2 51625  87.8903 212.5650 0001385  89.1869 270.9417 13.10374899 93080
ONEWEB-0422             
1 51626U 22012E   24011.91314883  .00000055  00000+0  10747-3 0  9993
2 51626  87.9211 182.2734 0002075 114.4843 245.6505 13.17647641 96963
ONEWEB-0423             
1 51627U 22012F   24011.90682168  .00000056  00000+0  11036-3 0  9990
2 51627  87.9211 182.2734 0001463  99.4301 260.6996 13.17647670 96856
ONEWEB-0425             
1 51628U 22012G   24011.60419942  .00000307  00000+0  84417-3 0  9998
2 51628  87.8901 212.5517 0001011  96.7848 263.3394 13.10378449 94378
